EXCITE                  
1 43819U 18099BP  26068.69809098  .00002813  00000+0  19631-3 0  9999
2 43819  97.4107 111.3606 0017626 337.4818  22.5634 15.06036758396774
STARLINK-3987           
1 52699U 22053AV  26068.50677891  .00005758  00000+0  37990-3 0  9993
2 52699  53.2184 139.9745 0001532  88.0087 272.1081 15.08809649211214
