[{"OBJECT_NAME":"EXCITE","OBJECT_ID":"2018-099BP","EPOCH":"2026-03-09T16:45:15.060672","MEAN_MOTION":15.06036758,"ECCENTRICITY":0.0017626,"INCLINATION":97.4107,"RA_OF_ASC_NODE":111.3606,"ARG_OF_PERICENTER":337.4818,"MEAN_ANOMALY":22.5634,"EPHEMERIS_TYPE":0,"CLASSIFICATION_TYPE":"U","NORAD_CAT_ID":43819,"ELEMENT_SET_NO":999,"REV_AT_EPOCH":39677,"BSTAR":0.00019631388,"MEAN_MOTION_DOT":2.813e-5,"MEAN_MOTION_DDOT":0},{"OBJECT_NAME":"STARLINK-3987","OBJECT_ID":"2022-053AV","EPOCH":"2026-03-09T12:09:45.697824","MEAN_MOTION":15.08809649,"ECCENTRICITY":0.00015324,"INCLINATION":53.2184,"RA_OF_ASC_NODE":139.9745,"ARG_OF_PERICENTER":88.0087,"MEAN_ANOMALY":272.1081,"EPHEMERIS_TYPE":0,"CLASSIFICATION_TYPE":"U","NORAD_CAT_ID":52699,"ELEMENT_SET_NO":999,"REV_AT_EPOCH":21121,"BSTAR":0.00037990234,"MEAN_MOTION_DOT":5.758e-5,"MEAN_MOTION_DDOT":0}]
